{
  "type": "FeatureCollection",
  "features": [
    {
      "type": "Feature",
      "properties": {
        "norad_id": 29807,
        "name": "FENGYUN 1C DEB",
        "group": "fengyun-1c-debris",
        "lat": 80.59060501098098,
        "lon": -120.02088599916212,
        "alt_km": 886.7793631558206,
        "timestamp": "2025-12-12T22:42:12.817143+00:00",
        "meta_object_name": "FENGYUN 1C DEB",
        "meta_object_id": "1999-025CZ",
        "meta_epoch": "2025-12-12T06:55:15.904128",
        "meta_mean_motion": 14.08657361,
        "meta_eccentricity": 0.00795065,
        "meta_inclination": 98.7549,
        "meta_ra_of_asc_node": 350.9226,
        "meta_arg_of_pericenter": 333.2231,
        "meta_mean_anomaly": 26.4844,
        "meta_ephemeris_type": 0,
        "meta_classification_type": "U",
        "meta_norad_cat_id": 29807,
        "meta_element_set_no": 999,
        "meta_rev_at_epoch": 97088,
        "meta_bstar": 0.00041858135,
        "meta_mean_motion_dot": 6.98e-06,
        "meta_mean_motion_ddot": 0,
        "tle_line1": "1 29807U 99025CZ  25346.28837852  .00000698  00000+0  41858-3 0  9995",
        "tle_line2": "2 29807  98.7549 350.9226 0079506 333.2231  26.4844 14.08657361970882"
      },
      "geometry": {
        "type": "Point",
        "coordinates": [
          -120.02088599916212,
          80.59060501098098
        ]
      }
    },
    {
      "type": "Feature",
      "properties": {
        "norad_id": 29808,
        "name": "FENGYUN 1C DEB",
        "group": "fengyun-1c-debris",
        "lat": -76.15366502951204,
        "lon": -54.57258116198955,
        "alt_km": 518.9606069105084,
        "timestamp": "2025-12-12T22:42:12.817154+00:00",
        "meta_object_name": "FENGYUN 1C DEB",
        "meta_object_id": "1999-025DA",
        "meta_epoch": "2025-12-12T07:48:41.775264",
        "meta_mean_motion": 15.21844727,
        "meta_eccentricity": 0.00190161,
        "meta_inclination": 99.014,
        "meta_ra_of_asc_node": 264.5903,
        "meta_arg_of_pericenter": 93.8162,
        "meta_mean_anomaly": 28.826,
        "meta_ephemeris_type": 0,
        "meta_classification_type": "U",
        "meta_norad_cat_id": 29808,
        "meta_element_set_no": 999,
        "meta_rev_at_epoch": 98219,
        "meta_bstar": 0.017640051,
        "meta_mean_motion_dot": 0.00426109,
        "meta_mean_motion_ddot": 0,
        "tle_line1": "1 29808U 99025DA  25346.32548351  .00426109  00000+0  17640-1 0  9993",
        "tle_line2": "2 29808  99.0140 264.5903 0019016  93.8162  28.8260 15.21844727982193"
      },
      "geometry": {
        "type": "Point",
        "coordinates": [
          -54.57258116198955,
          -76.15366502951204
        ]
      }
    },
    {
      "type": "Feature",
      "properties": {
        "norad_id": 29809,
        "name": "FENGYUN 1C DEB",
        "group": "fengyun-1c-debris",
        "lat": 35.17989131265492,
        "lon": 136.80890535080042,
        "alt_km": 809.0640621190068,
        "timestamp": "2025-12-12T22:42:12.817164+00:00",
        "meta_object_name": "FENGYUN 1C DEB",
        "meta_object_id": "1999-025DB",
        "meta_epoch": "2025-12-11T21:23:17.608128",
        "meta_mean_motion": 14.46587611,
        "meta_eccentricity": 0.0116177,
        "meta_inclination": 98.8601,
        "meta_ra_of_asc_node": 309.3936,
        "meta_arg_of_pericenter": 352.5548,
        "meta_mean_anomaly": 61.1367,
        "meta_ephemeris_type": 0,
        "meta_classification_type": "U",
        "meta_norad_cat_id": 29809,
        "meta_element_set_no": 999,
        "meta_rev_at_epoch": 99455,
        "meta_bstar": 0.0006214,
        "meta_mean_motion_dot": 2.384e-05,
        "meta_mean_motion_ddot": 0,
        "tle_line1": "1 29809U 99025DB  25345.89117602  .00002384  00000+0  62140-3 0  9998",
        "tle_line2": "2 29809  98.8601 309.3936 0116177 352.5548  61.1367 14.46587611994559"
      },
      "geometry": {
        "type": "Point",
        "coordinates": [
          136.80890535080042,
          35.17989131265492
        ]
      }
    },
    {
      "type": "Feature",
      "properties": {
        "norad_id": 29810,
        "name": "FENGYUN 1C DEB",
        "group": "fengyun-1c-debris",
        "lat": 24.886008302789968,
        "lon": -151.9048692321981,
        "alt_km": 828.4199991769165,
        "timestamp": "2025-12-12T22:42:12.817174+00:00",
        "meta_object_name": "FENGYUN 1C DEB",
        "meta_object_id": "1999-025DC",
        "meta_epoch": "2025-12-12T01:57:10.818144",
        "meta_mean_motion": 14.2912861,
        "meta_eccentricity": 0.00669648,
        "meta_inclination": 99.2067,
        "meta_ra_of_asc_node": 22.8677,
        "meta_arg_of_pericenter": 20.8817,
        "meta_mean_anomaly": 7.456,
        "meta_ephemeris_type": 0,
        "meta_classification_type": "U",
        "meta_norad_cat_id": 29810,
        "meta_element_set_no": 999,
        "meta_rev_at_epoch": 98368,
        "meta_bstar": 0.00039446861,
        "meta_mean_motion_dot": 9.76e-06,
        "meta_mean_motion_ddot": 0,
        "tle_line1": "1 29810U 99025DC  25346.08137521  .00000976  00000+0  39447-3 0  9993",
        "tle_line2": "2 29810  99.2067  22.8677 0066964  20.8817   7.4560 14.29128610983684"
      },
      "geometry": {
        "type": "Point",
        "coordinates": [
          -151.9048692321981,
          24.886008302789968
        ]
      }
    },
    {
      "type": "Feature",
      "properties": {
        "norad_id": 29812,
        "name": "FENGYUN 1C DEB",
        "group": "fengyun-1c-debris",
        "lat": 13.228693468390473,
        "lon": 173.78635029273218,
        "alt_km": 814.6579850744674,
        "timestamp": "2025-12-12T22:42:12.817185+00:00",
        "meta_object_name": "FENGYUN 1C DEB",
        "meta_object_id": "1999-025DE",
        "meta_epoch": "2025-12-07T01:05:47.261760",
        "meta_mean_motion": 14.01959129,
        "meta_eccentricity": 0.01444592,
        "meta_inclination": 98.3498,
        "meta_ra_of_asc_node": 170.3581,
        "meta_arg_of_pericenter": 343.8427,
        "meta_mean_anomaly": 145.6696,
        "meta_ephemeris_type": 0,
        "meta_classification_type": "U",
        "meta_norad_cat_id": 29812,
        "meta_element_set_no": 999,
        "meta_rev_at_epoch": 96092,
        "meta_bstar": 0.0016935691,
        "meta_mean_motion_dot": 2.789e-05,
        "meta_mean_motion_ddot": 0,
        "tle_line1": "1 29812U 99025DE  25341.04568590  .00002789  00000+0  16936-2 0  9991",
        "tle_line2": "2 29812  98.3498 170.3581 0144459 343.8427 145.6696 14.01959129960922"
      },
      "geometry": {
        "type": "Point",
        "coordinates": [
          173.78635029273218,
          13.228693468390473
        ]
      }
    },
    {
      "type": "Feature",
      "properties": {
        "norad_id": 29813,
        "name": "FENGYUN 1C DEB",
        "group": "fengyun-1c-debris",
        "lat": 7.431582975489668,
        "lon": 5.651492001745449,
        "alt_km": 870.2307786442279,
        "timestamp": "2025-12-12T22:42:12.817195+00:00",
        "meta_object_name": "FENGYUN 1C DEB",
        "meta_object_id": "1999-025DF",
        "meta_epoch": "2025-12-12T07:25:40.190016",
        "meta_mean_motion": 14.09450952,
        "meta_eccentricity": 0.00118168,
        "meta_inclination": 98.7276,
        "meta_ra_of_asc_node": 6.1828,
        "meta_arg_of_pericenter": 223.3223,
        "meta_mean_anomaly": 156.4777,
        "meta_ephemeris_type": 0,
        "meta_classification_type": "U",
        "meta_norad_cat_id": 29813,
        "meta_element_set_no": 999,
        "meta_rev_at_epoch": 97254,
        "meta_bstar": 6.5857807e-05,
        "meta_mean_motion_dot": 7.2e-07,
        "meta_mean_motion_ddot": 0,
        "tle_line1": "1 29813U 99025DF  25346.30949294  .00000072  00000+0  65858-4 0  9992",
        "tle_line2": "2 29813  98.7276   6.1828 0011816 223.3223 156.4777 14.09450952972546"
      },
      "geometry": {
        "type": "Point",
        "coordinates": [
          5.651492001745449,
          7.431582975489668
        ]
      }
    },
    {
      "type": "Feature",
      "properties": {
        "norad_id": 29815,
        "name": "FENGYUN 1C DEB",
        "group": "fengyun-1c-debris",
        "lat": 22.544929155945287,
        "lon": -7.913213403548015,
        "alt_km": 726.7222582347704,
        "timestamp": "2025-12-12T22:42:12.817205+00:00",
        "meta_object_name": "FENGYUN 1C DEB",
        "meta_object_id": "1999-025DH",
        "meta_epoch": "2025-12-11T23:37:41.875680",
        "meta_mean_motion": 14.63706017,
        "meta_eccentricity": 0.0183948,
        "meta_inclination": 98.0565,
        "meta_ra_of_asc_node": 354.5173,
        "meta_arg_of_pericenter": 137.5735,
        "meta_mean_anomaly": 223.9858,
        "meta_ephemeris_type": 0,
        "meta_classification_type": "U",
        "meta_norad_cat_id": 29815,
        "meta_element_set_no": 999,
        "meta_rev_at_epoch": 99844,
        "meta_bstar": 0.00079594,
        "meta_mean_motion_dot": 5.251e-05,
        "meta_mean_motion_ddot": 0,
        "tle_line1": "1 29815U 99025DH  25345.98451245  .00005251  00000+0  79594-3 0  9996",
        "tle_line2": "2 29815  98.0565 354.5173 0183948 137.5735 223.9858 14.63706017998448"
      },
      "geometry": {
        "type": "Point",
        "coordinates": [
          -7.913213403548015,
          22.544929155945287
        ]
      }
    }
  ]
}